[{"OBJECT_NAME":"BRITE-PL2 (HEWELIUSZ)","OBJECT_ID":"2014-049B","EPOCH":"2026-03-09T20:58:34.162464","MEAN_MOTION":14.94186201,"ECCENTRICITY":0.00154454,"INCLINATION":97.8982,"RA_OF_ASC_NODE":180.2053,"ARG_OF_PERICENTER":80.5248,"MEAN_ANOMALY":279.7716,"EPHEMERIS_TYPE":0,"CLASSIFICATION_TYPE":"U","NORAD_CAT_ID":40119,"ELEMENT_SET_NO":999,"REV_AT_EPOCH":62661,"BSTAR":0.00026097212,"MEAN_MOTION_DOT":2.742e-5,"MEAN_MOTION_DDOT":0},{"OBJECT_NAME":"STARLINK-34644","OBJECT_ID":"2025-150Y","EPOCH":"2026-03-09T14:53:29.402016","MEAN_MOTION":14.98332521,"ECCENTRICITY":0.0003351,"INCLINATION":70.002,"RA_OF_ASC_NODE":134.6954,"ARG_OF_PERICENTER":269.5227,"MEAN_ANOMALY":90.5548,"EPHEMERIS_TYPE":0,"CLASSIFICATION_TYPE":"U","NORAD_CAT_ID":64812,"ELEMENT_SET_NO":999,"REV_AT_EPOCH":3650,"BSTAR":0.00015232,"MEAN_MOTION_DOT":1.725e-5,"MEAN_MOTION_DDOT":0}]
